2023-104A               
1 57424U 23104A   26065.78279804  .00015492  00000+0  48200-3 0  9993
2 57424  97.2792 135.5625 0009333 122.1915 238.0234 15.33350758146346
STARLINK-35241          
1 65515U 25198Z   26068.85676795  .00023888  00000+0  81708-3 0  9997
2 65515  53.1556 270.3628 0001192 109.4815 250.6314 15.30159665 28640
