[{"OBJECT_NAME":"OBJECT A","OBJECT_ID":"2023-104A","EPOCH":"2026-03-06T18:47:13.750656","MEAN_MOTION":15.33350758,"ECCENTRICITY":0.00093331,"INCLINATION":97.2792,"RA_OF_ASC_NODE":135.5625,"ARG_OF_PERICENTER":122.1915,"MEAN_ANOMALY":238.0234,"EPHEMERIS_TYPE":0,"CLASSIFICATION_TYPE":"U","NORAD_CAT_ID":57424,"ELEMENT_SET_NO":999,"REV_AT_EPOCH":14634,"BSTAR":0.00048200218,"MEAN_MOTION_DOT":0.00015492,"MEAN_MOTION_DDOT":0},{"OBJECT_NAME":"STARLINK-35241","OBJECT_ID":"2025-198Z","EPOCH":"2026-03-09T20:33:44.751744","MEAN_MOTION":15.30159665,"ECCENTRICITY":0.00011922,"INCLINATION":53.1556,"RA_OF_ASC_NODE":270.3628,"ARG_OF_PERICENTER":109.4815,"MEAN_ANOMALY":250.6314,"EPHEMERIS_TYPE":0,"CLASSIFICATION_TYPE":"U","NORAD_CAT_ID":65515,"ELEMENT_SET_NO":999,"REV_AT_EPOCH":2864,"BSTAR":0.00081708406,"MEAN_MOTION_DOT":0.00023888,"MEAN_MOTION_DDOT":0}]
